NORAD_CAT_ID,OBJECT_NAME,OBJECT_TYPE,EPOCH,MEAN_MOTION,ECCENTRICITY,INCLINATION,RA_OF_ASC_NODE,ARG_OF_PERICENTER,MEAN_ANOMALY,BSTAR,MEAN_MOTION_DOT,MEAN_MOTION_DDOT,TLE_LINE0,TLE_LINE1,TLE_LINE2,SEMIMAJOR_AXIS,PERIOD,APOGEE,PERIGEE,DECAYED
40536,KOMPSAT 3A,PAYLOAD,2022-08-15 19:31:02,15.12142324,0.0004177,97.5336,169.6329,257.8666,130.6003,0.00014815,2.489e-05,0.0,0 KOMPSAT 3A,1 40536U 15014A   22227.81321872  .00002489  00000-0  14815-3 0  9991,2 40536  97.5336 169.6329 0004177 257.8666 130.6003 15.12142324408019,6907.805,95.229,532.555,526.784,0.0
40536,KOMPSAT 3A,PAYLOAD,2022-08-15 21:21:10,15.12142604,0.0004169,97.5335,169.7083,257.4958,187.0557,0.00014734,2.475e-05,0.0,0 KOMPSAT 3A,1 40536U 15014A   22227.88970118  .00002475  00000-0  14734-3 0  9996,2 40536  97.5335 169.7083 0004169 257.4958 187.0557 15.12142604408029,6907.804,95.229,532.549,526.789,0.0
40536,KOMPSAT 3A,PAYLOAD,2022-08-16 02:16:28,15.12143204,0.0004173,97.5335,169.9106,256.035,224.1991,0.00014404,2.418e-05,0.0,0 KOMPSAT 3A,1 40536U 15014A   22228.09477999  .00002418  00000-0  14404-3 0  9990,2 40536  97.5335 169.9106 0004173 256.0350 224.1991 15.12143204408058,6907.802,95.229,532.55,526.785,0.0
40536,KOMPSAT 3A,PAYLOAD,2022-08-16 10:11:19,15.1214431,0.0004213,97.5336,170.2359,254.018,220.1441,0.00014031,2.354e-05,0.0,0 KOMPSAT 3A,1 40536U 15014A   22228.42452994  .00002354  00000-0  14031-3 0  9990,2 40536  97.5336 170.2359 0004213 254.0180 220.1441 15.12144310408109,6907.799,95.229,532.5740000000002,526.754,0.0
40536,KOMPSAT 3A,PAYLOAD,2022-08-16 14:54:20,15.12144485,0.000425,97.5335,170.4298,252.2947,211.1229,0.00013498,2.262e-05,0.0,0 KOMPSAT 3A,1 40536U 15014A   22228.62107497  .00002262  00000-0  13498-3 0  9991,2 40536  97.5335 170.4298 0004250 252.2947 211.1229 15.12144485408134,6907.7980000000025,95.229,532.599,526.727,0.0
40536,KOMPSAT 3A,PAYLOAD,2022-08-16 21:10:51,15.12145183,0.0004206,97.5335,170.688,252.3744,193.4722,0.00013077,2.189e-05,0.0,0 KOMPSAT 3A,1 40536U 15014A   22228.88253804  .00002189  00000-0  13077-3 0  9994,2 40536  97.5335 170.6880 0004206 252.3744 193.4722 15.12145183408170,6907.7959999999985,95.229,532.567,526.756,0.0
40536,KOMPSAT 3A,PAYLOAD,2022-08-17 06:53:39,15.12146388,0.000425,97.5336,171.0874,251.1487,236.5341,0.0001261,2.109e-05,0.0,0 KOMPSAT 3A,1 40536U 15014A   22229.28726697  .00002109  00000-0  12610-3 0  9998,2 40536  97.5336 171.0874 0004250 251.1487 236.5341 15.12146388408230,6907.793000000002,95.229,532.5930000000002,526.722,0.0
40536,KOMPSAT 3A,PAYLOAD,2022-08-17 11:41:29,15.12146867,0.0004263,97.5336,171.2844,250.5019,244.5901,0.00012354,2.065e-05,0.0,0 KOMPSAT 3A,1 40536U 15014A   22229.48714837  .00002065  00000-0  12354-3 0  9999,2 40536  97.5336 171.2844 0004263 250.5019 244.5901 15.12146867408263,6907.791,95.229,532.601,526.711,0.0
40536,KOMPSAT 3A,PAYLOAD,2022-08-17 15:02:17,15.12147131,0.0004268,97.5336,171.4219,248.7287,284.9724,0.00012129,2.026e-05,0.0,0 KOMPSAT 3A,1 40536U 15014A   22229.62659144  .00002026  00000-0  12129-3 0  9991,2 40536  97.5336 171.4219 0004268 248.7287 284.9724 15.12147131408280,6907.79,95.229,532.6030000000002,526.707,0.0
40536,KOMPSAT 3A,PAYLOAD,2022-08-17 17:50:30,15.12147453,0.00042410000000000017,97.5336,171.5371,248.74,200.4674,0.00011972,1.999e-05,0.0,0 KOMPSAT 3A,1 40536U 15014A   22229.74340644  .00001999  00000-0  11972-3 0  9999,2 40536  97.5336 171.5371 0004241 248.7400 200.4674 15.12147453408305,6907.7890000000025,95.229,532.5840000000002,526.725,0.0
40536,KOMPSAT 3A,PAYLOAD,2022-08-18 11:23:59,15.1215044,0.0004251,97.5335,172.2588,245.421,223.8318,0.0001187,1.982e-05,0.0,0 KOMPSAT 3A,1 40536U 15014A   22230.47499277  .00001982  00000-0  11870-3 0  9997,2 40536  97.5335 172.2588 0004251 245.4210 223.8318 15.12150440408412,6907.78,95.229,532.582,526.7090000000002,0.0
40536,KOMPSAT 3A,PAYLOAD,2022-08-18 19:13:48,15.12152054,0.0004257,97.5335,172.5806,244.9903,199.2077,0.00012,2.004e-05,0.0,0 KOMPSAT 3A,1 40536U 15014A   22230.80125105  .00002004  00000-0  12000-3 0  9992,2 40536  97.5335 172.5806 0004257 244.9903 199.2077 15.12152054408463,6907.775,95.229,532.581,526.7,0.0
40536,KOMPSAT 3A,PAYLOAD,2022-08-19 02:50:57,15.1215366,0.00042800000000000016,97.5335,172.8937,243.8039,127.5469,0.00012144,2.029e-05,0.0,0 KOMPSAT 3A,1 40536U 15014A   22231.11872400  .00002029  00000-0  12144-3 0  9990,2 40536  97.5335 172.8937 0004280 243.8039 127.5469 15.12153660408514,6907.77,95.228,532.592,526.679,0.0
40536,KOMPSAT 3A,PAYLOAD,2022-08-19 09:38:53,15.12155469,0.0004314,97.5335,173.1733,241.4034,231.0991,0.00012486,2.088e-05,0.0,0 KOMPSAT 3A,1 40536U 15014A   22231.40200659  .00002088  00000-0  12486-3 0  9997,2 40536  97.5335 173.1733 0004314 241.4034 231.0991 15.12155469408553,6907.765,95.228,532.61,526.65,0.0
40536,KOMPSAT 3A,PAYLOAD,2022-08-19 14:22:29,15.12157276,0.0004305,97.5335,173.3676,241.3697,222.6153,0.00013130000000000002,2.199e-05,0.0,0 KOMPSAT 3A,1 40536U 15014A   22231.59895770  .00002199  00000-0  13130-3 0  9991,2 40536  97.5335 173.3676 0004305 241.3697 222.6153 15.12157276408582,6907.759,95.228,532.5980000000002,526.651,0.0
40536,KOMPSAT 3A,PAYLOAD,2022-08-19 18:48:58,15.12158398,0.0004333,97.5335,173.55,240.6326,150.0998,0.00013311,2.231e-05,0.0,0 KOMPSAT 3A,1 40536U 15014A   22231.78401015  .00002231  00000-0  13311-3 0  9995,2 40536  97.5335 173.5500 0004333 240.6326 150.0998 15.12158398408613,6907.7559999999985,95.228,532.614,526.628,0.0
40536,KOMPSAT 3A,PAYLOAD,2022-08-19 22:14:26,15.12159508,0.00043839999999999987,97.5335,173.6908,240.0648,206.9027,0.00013597,2.28e-05,0.0,0 KOMPSAT 3A,1 40536U 15014A   22231.92669120  .00002280  00000-0  13597-3 0  9994,2 40536  97.5335 173.6908 0004384 240.0648 206.9027 15.12159508408633,6907.753000000002,95.228,532.646,526.589,0.0
40536,KOMPSAT 3A,PAYLOAD,2022-08-20 04:41:40,15.12161259,0.0004403,97.5335,173.9562,238.5401,231.4016,0.00013915,2.335e-05,0.0,0 KOMPSAT 3A,1 40536U 15014A   22232.19560313  .00002335  00000-0  13915-3 0  9993,2 40536  97.5335 173.9562 0004403 238.5401 231.4016 15.12161259408674,6907.7469999999985,95.228,532.654,526.571,0.0
40536,KOMPSAT 3A,PAYLOAD,2022-08-20 11:06:14,15.12163362,0.0004369,97.5334,174.2196,237.7101,245.1329,0.00014458,2.429e-05,0.0,0 KOMPSAT 3A,1 40536U 15014A   22232.46266294  .00002429  00000-0  14458-3 0  9991,2 40536  97.5334 174.2196 0004369 237.7101 245.1329 15.12163362408710,6907.741,95.228,532.624,526.5880000000002,0.0
40536,KOMPSAT 3A,PAYLOAD,2022-08-20 18:52:29,15.12166766,0.0004409,97.5335,174.5389,235.4746,208.8912,0.00015661,2.637e-05,0.0,0 KOMPSAT 3A,1 40536U 15014A   22232.78644926  .00002637  00000-0  15661-3 0  9996,2 40536  97.5335 174.5389 0004409 235.4746 208.8912 15.12166766408763,6907.73,95.228,532.641,526.55,0.0
40536,KOMPSAT 3A,PAYLOAD,2022-08-20 23:34:52,15.12168321,0.0004473,97.5335,174.7325,234.5765,196.6353,0.00016022,2.699e-05,0.0,0 KOMPSAT 3A,1 40536U 15014A   22232.98254715  .00002699  00000-0  16022-3 0  9991,2 40536  97.5335 174.7325 0004473 234.5765 196.6353 15.12168321408792,6907.726,95.227,532.681,526.501,0.0
40536,KOMPSAT 3A,PAYLOAD,2022-08-21 02:41:50,15.121695,0.0004561,97.5334,174.8606,233.0357,184.5511,0.00016328,2.752e-05,0.0,0 KOMPSAT 3A,1 40536U 15014A   22233.11238606  .00002752  00000-0  16328-3 0  9997,2 40536  97.5334 174.8606 0004561 233.0357 184.5511 15.12169500408818,6907.722,95.227,532.738,526.437,0.0
40536,KOMPSAT 3A,PAYLOAD,2022-08-21 12:31:41,15.12172835,0.0004444,97.5337,175.2652,231.267,254.8506,0.00017192,2.901e-05,0.0,0 KOMPSAT 3A,1 40536U 15014A   22233.52201374  .00002901  00000-0  17192-3 0  9990,2 40536  97.5337 175.2652 0004444 231.2670 254.8506 15.12172835408871,6907.712,95.227,532.6469999999998,526.507,0.0
40536,KOMPSAT 3A,PAYLOAD,2022-08-21 20:17:14,15.12175061,0.0004484,97.5336,175.5841,229.3598,215.5791,0.00017449,2.946e-05,0.0,0 KOMPSAT 3A,1 40536U 15014A   22233.84530338  .00002946  00000-0  17449-3 0  9994,2 40536  97.5336 175.5841 0004484 229.3598 215.5791 15.12175061408924,6907.705,95.227,532.668,526.4730000000002,0.0
40536,KOMPSAT 3A,PAYLOAD,2022-08-22 02:48:07,15.12176832,0.0004506,97.5337,175.852,228.1012,253.6597,0.00017602,2.972e-05,0.0,0 KOMPSAT 3A,1 40536U 15014A   22234.11675850  .00002972  00000-0  17602-3 0  9994,2 40536  97.5337 175.8520 0004506 228.1012 253.6597 15.12176832408963,6907.7,95.227,532.677,526.452,0.0
40536,KOMPSAT 3A,PAYLOAD,2022-08-22 10:49:10,15.12178907,0.0004482,97.5337,176.1816,227.2316,271.965,0.00017699,2.989e-05,0.0,0 KOMPSAT 3A,1 40536U 15014A   22234.45082172  .00002989  00000-0  17699-3 0  9994,2 40536  97.5337 176.1816 0004482 227.2316 271.9650 15.12178907409010,6907.693,95.227,532.654,526.462,0.0
40536,KOMPSAT 3A,PAYLOAD,2022-08-22 13:51:31,15.12179562,0.000451,97.5337,176.3065,226.5961,241.4891,0.00017698,2.989e-05,0.0,0 KOMPSAT 3A,1 40536U 15014A   22234.57744656  .00002989  00000-0  17698-3 0  9998,2 40536  97.5337 176.3065 0004510 226.5961 241.4891 15.12179562409037,6907.691,95.227,532.672,526.441,0.0
40536,KOMPSAT 3A,PAYLOAD,2022-08-22 17:04:45,15.12180177,0.0004535,97.5336,176.4389,225.6566,252.4647,0.00017587,2.97e-05,0.0,0 KOMPSAT 3A,1 40536U 15014A   22234.71163463  .00002970  00000-0  17587-3 0  9992,2 40536  97.5336 176.4389 0004535 225.6566 252.4647 15.12180177409051,6907.69,95.227,532.687,526.422,0.0
40536,KOMPSAT 3A,PAYLOAD,2022-08-22 21:41:56,15.12181278,0.0004604,97.5337,176.6288,224.114,221.2172,0.00017563,2.966e-05,0.0,0 KOMPSAT 3A,1 40536U 15014A   22234.90412198  .00002966  00000-0  17563-3 0  9994,2 40536  97.5337 176.6288 0004604 224.1140 221.2172 15.12181278409084,6907.686,95.227,532.732,526.371,0.0
40536,KOMPSAT 3A,PAYLOAD,2022-08-23 02:37:19,15.12182034,0.0004627,97.5337,176.831,222.7494,258.6025,0.00017280000000000005,2.917e-05,0.0,0 KOMPSAT 3A,1 40536U 15014A   22235.10925791  .00002917  00000-0  17280-3 0  9997,2 40536  97.5337 176.8310 0004627 222.7494 258.6025 15.12182034409119,6907.684,95.227,532.745,526.3530000000002,0.0
